AEROCUBE 12A            
1 43556U 18046C   19248.87895832  .00001841  00000-0  77189-4 0  9996
2 43556  51.6431  36.7563 0008291 357.4810   2.6127 15.28885285 63675
AEROCUBE 12B            
1 43557U 18046D   19249.42253223  .00001547  00000-0  67182-4 0  9996
2 43557  51.6432  34.3807 0008241 359.5739   0.5233 15.28730421 63700
UITMSAT-1               
1 43589U 98067PD  19249.55226706  .00014163  00000-0  15570-3 0  9993
2 43589  51.6356 299.6157 0005658  86.1404 274.0238 15.63454196 61235
MAYA-1                  
1 43590U 98067PE  19249.35467731  .00012380  00000-0  13680-3 0  9997
2 43590  51.6358 300.5514 0005720  87.1117 273.0532 15.63463585 61137
BHUTAN-1                
1 43591U 98067PF  19249.34239379  .00012778  00000-0  14068-3 0  9994
2 43591  51.6368 300.4985 0005864  86.7898 273.3768 15.63523443 61134
SIRIUSSAT-1             
1 43595U 98067PG  19248.79652225  .00012381  00000-0  14155-3 0  9992
2 43595  51.6359 305.0748 0004127  46.7313 313.4025 15.62588669 60204
SIRIUSSAT-2             
1 43596U 98067PH  19249.41070820  .00011229  00000-0  12969-3 0  9999
2 43596  51.6369 302.4700 0004647  49.3224 310.8173 15.62437389 60298
TANUSHA-3               
1 43597U 98067PJ  19249.51193161  .00017546  00000-0  18422-3 0  9993
2 43597  51.6352 299.3200 0004237  59.3915 300.7498 15.64442412 60342
SURFSAT                 
1 43614U 18070B   19249.84082942  .00002150  00000-0  57926-4 0  9997
2 43614  93.0286  36.7403 0015888   6.9600 353.1871 15.37798119 54729
CP7 (DAVE)              
1 43615U 18070C   19249.13517952  .00002171  00000-0  58673-4 0  9997
2 43615  93.0289  36.4481 0016200   8.9592 351.1947 15.37702220 54615
ELFIN-B                 
1 43616U 18070D   19249.10851220  .00003282  00000-0  86461-4 0  9994
2 43616  93.0252  36.3454 0017040  11.9382 348.2272 15.38437545 54624
ELFIN-A                 
1 43617U 18070E   19249.88045573  .00003328  00000-0  87555-4 0  9992
2 43617  93.0306  36.9419 0015952   6.3993 353.7461 15.38499276 54741
CUBEBEL-1 (BSUSAT-1)    
1 43666U 18083E   19249.73430693  .00001186  00000-0  62172-4 0  9993
2 43666  97.5171 273.6568 0013443 271.7372 201.0221 15.17697708 47424
DEBRISSAT-2             
1 43680U 98067PR  19249.12493773  .00020119  00000-0  19979-3 0  9993
2 43680  51.6359 300.5306 0003886  67.6446 292.4961 15.65746280 69021
CICERO 10               
1 43690U 18088A   19249.10357046  .00000677  00000-0  29764-4 0  9990
2 43690  85.0346 266.2242 0012711 278.0709  81.9089 15.19749562 45394
IRVINE01                
1 43693U 18088D   19249.85334175  .00002087  00000-0  90477-4 0  9999
2 43693  85.0326 265.1682 0015901 256.4893 103.4577 15.21617009 45552
PROXIMA I               
1 43694U 18088E   19249.81489477  .00000811  00000-0  34153-4 0  9994
2 43694  85.0290 264.9998 0017206 247.3243 112.6180 15.21476528 45559
PROXIMA II              
1 43696U 18088G   19249.81377956  .00000802  00000-0  33785-4 0  9994
2 43696  85.0291 265.0019 0017242 247.2841 112.6578 15.21481133 45550
FACSAT-1                
1 43721U 18096C   19249.84633697  .00001140  00000-0  46392-4 0  9996
2 43721  97.4539 319.5641 0019169  51.1771 309.1175 15.26452310 42969
CENTAURI-2              
1 43722U 18096D   19249.81469054  .00001700  00000-0  67275-4 0  9993
2 43722  97.4542 319.6081 0019325  51.7579 308.5396 15.26709107 42955
INNOSAT-2               
1 43738U 18096V   19249.82806661  .00002168  00000-0  79197-4 0  9995
2 43738  97.4544 320.5128 0025717  60.9999 299.3813 15.28928522 43023
SIRION PATHFINDER-2     
1 43759U 18099B   19249.82787603  .00000245  00000-0  27568-4 0  9994
2 43759  97.7396 320.8089 0015640  57.1437 303.1287 14.95157230 41392
CORVUS-BC 4             
1 43767U 18099K   19249.46209120  .00000112  00000-0  15579-4 0  9998
2 43767  97.7380 320.1610 0013085  61.9566 298.2976 14.94597166 41332
MOVE-II                 
1 43780U 18099Y   19249.17961564  .00000014  00000-0  65280-5 0  9994
2 43780  97.7390 320.0761 0014953  69.7424 290.5402 14.95113262 41283
SPACEBEE-7              
1 43816U 18099BL  19249.17915418 -.00000101  00000-0 -38559-5 0  9999
2 43816  97.7404 320.2798 0014631  55.7829 304.4776 14.95455915 40853
SPACEBEE-5              
1 43817U 18099BM  19249.15158473  .00001290  00000-0  12078-3 0  9992
2 43817  97.7430 320.3627 0014448  57.8292 302.4328 14.95743154 40854
SPACEBEE-6              
1 43818U 18099BN  19249.16980477  .00000254  00000-0  28068-4 0  9997
2 43818  97.7413 320.3062 0014650  56.1818 304.0795 14.95549867 41009
SHIELDS 1               
1 43850U 18104B   19249.70796661  .00000041  00000-0  00000+0 0  9995
2 43850  85.0319   3.5655 0016434  44.1761 316.0828 15.21131895 40180
STF-1                   
1 43852U 18104D   19248.75007273  .00000041  00000-0  00000+0 0  9995
2 43852  85.0358   4.5017 0016956  59.3080 300.9843 15.20710308 40022
ZACUBE-2                
1 43907U 18111AH  19249.83436278  .00000488  00000-0  22719-4 0  9996
2 43907  97.2823 152.8435 0023387  70.0867 290.2887 15.24249033 38656
LUME 1                  
1 43908U 18111AJ  19249.29343086  .00001019  00000-0  44076-4 0  9992
2 43908  97.2822 152.3518 0023344  71.8670 288.5107 15.24441895 38573
AOBA VELOX-IV           
1 43940U 19003J   19249.73765977  .00002214  00000-0  93529-4 0  9990
2 43940  97.2700 305.2597 0024967 146.1607   7.7674 15.24001916 35278
CATSAT-2                
1 44029U 98067PV  19248.75205467  .00012741  00000-0  17551-3 0  9996
2 44029  51.6395 315.3410 0005149  81.2357 278.9218 15.57615426 33894
DELPHINI                
1 44030U 98067PW  19249.63656723  .00010011  00000-0  13850-3 0  9997
2 44030  51.6378 310.7289 0005018  79.4709 280.6849 15.57786282 34008
UNITE                   
1 44031U 98067PX  19248.63654337  .00006373  00000-0  95123-4 0  9996
2 44031  51.6391 316.8066 0003809  74.6940 285.4472 15.56461076 33839
TECHEDSAT 8             
1 44032U 98067PY  19249.62584734  .00027035  00000-0  30026-3 0  9998
2 44032  51.6373 306.9083 0003998  63.6771 296.4634 15.62700986 34036
CATSAT-1                
1 44033U 98067PZ  19248.75178767  .00009770  00000-0  13629-3 0  9993
2 44033  51.6397 315.3404 0005061  80.1251 280.0312 15.57595649 33802
RAAVANA-1               
1 44329U 98067QE  19248.76799592  .00006551  00000-0  11123-3 0  9998
2 44329  51.6412 320.6925 0007639  19.8706 340.2580 15.52789500 12542
UGUISU                  
1 44330U 98067QF  19249.09175695  .00005919  00000-0  10137-3 0  9990
2 44330  51.6412 319.1046 0007633  19.7721 340.3564 15.52752790 12578
NEPALISAT-1             
1 44331U 98067QG  19249.60281369  .00006840  00000-0  11562-3 0  9991
2 44331  51.6412 316.5186 0007704  24.1605 335.9745 15.52835403 12669
SPOOQY-1                
1 44332U 98067QH  19249.66527268  .00006648  00000-0  11247-3 0  9995
2 44332  51.6409 316.1841 0006510  26.6931 333.4393 15.52869229 12635
SPACEBEE-9              
1 44370U 19037F   19248.48142312  .00006239  00000-0  16297-3 0  9995
2 44370  45.0122 269.8162 0016165 301.2462  58.6821 15.39593870 10477
SPACEBEE-8              
1 44371U 19037G   19249.44266600  .00012333  00000-0  30777-3 0  9991
2 44371  45.0093 264.3163 0016384 310.6978  49.2484 15.40149599 10619
MOVE-IIB                
1 44398U 19038N   19248.85626372  .00001263  00000-0  77494-4 0  9999
2 44398  97.4950 209.5879 0026704  34.3766 325.9186 15.11658903  9420
SONATE                  
1 44400U 19038Q   19248.85480113  .00000544  00000-0  35569-4 0  9992
2 44400  97.4963 209.5917 0026360  32.6950 327.5905 15.11661881  9421
LUCKY-7                 
1 44406U 19038W   19249.11190637  .00000684  00000-0  43509-4 0  9995
2 44406  97.4962 209.8611 0025840  31.8896 328.3892 15.11851550  9453
BEESAT 9                
1 44412U 19038AC  19249.37884759  .00000912  00000-0  56864-4 0  9997
2 44412  97.4961 210.1170 0024130  36.8211 323.4671 15.11809510  9192
JAISAT-1                
1 44419U 19038F   19249.15971071  .00000772  00000-0  48114-4 0  9997
2 44419  97.4961 209.9503 0022971  37.5714 322.7116 15.12302244  9472
SWIATOWID               
1 44426U 98067QL  19249.56849736  .00009417  00000-0  15815-3 0  9997
2 44426  51.6420 317.0442 0004690 346.1700  13.9161 15.52514199 10140
KRAKSAT                 
1 44427U 98067QM  19249.66290347  .00006206  00000-0  10845-3 0  9998
2 44427  51.6440 316.6521 0003831 348.0608 139.6665 15.52090161 10198
VCC A                   
1 44428U 98067QN  19249.56640158  .00006058  00000-0  10499-3 0  9997
2 44428  51.6421 317.0307 0003703   4.4441 355.6581 15.52373500 10188
ENTRYSAT                
1 44429U 98067QP  19249.56398889  .00006917  00000-0  11831-3 0  9994
2 44429  51.6420 317.0144 0003470 356.3786   3.7178 15.52488477 10182
VCC C                   
1 44430U 98067QQ  19249.17945354  .00008295  00000-0  14041-3 0  9995
2 44430  51.6421 318.9462 0003686   2.9271 357.1740 15.52479235  8944
VCC B                   
1 44431U 98067QR  19249.56755934  .00006204  00000-0  10742-3 0  9994
2 44431  51.6422 317.0377 0003844   3.3916 356.7099 15.52353432 10123
